NORAD_CAT_ID,OBJECT_NAME,OBJECT_TYPE,EPOCH,MEAN_MOTION,ECCENTRICITY,INCLINATION,RA_OF_ASC_NODE,ARG_OF_PERICENTER,MEAN_ANOMALY,BSTAR,MEAN_MOTION_DOT,MEAN_MOTION_DDOT,TLE_LINE0,TLE_LINE1,TLE_LINE2,SEMIMAJOR_AXIS,PERIOD,APOGEE,PERIGEE,DECAYED
49433.0,STARLINK-3079,PAYLOAD,2024-02-06 03:26:24,15.08836259,0.0001246,53.2165,32.3213,101.7499,258.3633,2.6332e-05,1.31e-06,0.0,0 STARLINK-3079,1 49433U 21104AB  24037.14334451  .00000131  00000-0  26332-4 0  9997,2 49433  53.2165  32.3213 0001246 101.7499 258.3633 15.08836259124885,6917.892,95.438,540.619,538.895,0.0
49433.0,STARLINK-3079,PAYLOAD,2024-02-06 05:01:48,15.08836428,0.0001323,53.2161,32.0284,94.5736,265.5408,7.2777e-05,8.7e-06,0.0,0 STARLINK-3079,1 49433U 21104AB  24037.20958383  .00000870  00000-0  72777-4 0  9994,2 49433  53.2161  32.0284 0001323  94.5736 265.5408 15.08836428124894,6917.891,95.438,540.672,538.841,0.0
49433.0,STARLINK-3079,PAYLOAD,2024-02-07 04:52:35,15.08843035,0.0001859,53.2184,27.5683,125.0905,235.0262,4.472e-06,-2.17e-06,0.0,0 STARLINK-3079,1 49433U 21104AB  24038.20318306 -.00000217  00000-0  44720-5 0  9994,2 49433  53.2184  27.5683 0001859 125.0905 235.0262 15.08843035125043,6917.871,95.437,541.022,538.45,0.0
49433.0,STARLINK-3079,PAYLOAD,2024-02-07 22:21:49,15.08848185,0.0001873,53.2201,24.3032,113.1367,246.9823,4.674e-05,4.56e-06,0.0,0 STARLINK-3079,1 49433U 21104AB  24038.93182049  .00000456  00000-0  46740-4 0  9994,2 49433  53.2201  24.3032 0001873 113.1367 246.9823 15.08848185125159,6917.855,95.437,541.016,538.425,0.0
49433.0,STARLINK-3079,PAYLOAD,2024-02-08 03:07:59,15.08829499,0.0001588,53.2188,23.4055,111.2583,248.8579,2.4561e-06,-2.49e-06,0.0,0 STARLINK-3079,1 49433U 21104AB  24039.13055375 -.00000249  00000-0  24561-5 0  9997,2 49433  53.2188  23.4055 0001588 111.2583 248.8579 15.08829499125189,6917.912,95.438,540.876,538.679,0.0
49433.0,STARLINK-3079,PAYLOAD,2024-02-08 06:18:45,15.08838074,0.0001635,53.2188,22.8096,101.9145,258.2031,-2.8151e-05,-7.36e-06,0.0,0 STARLINK-3079,1 49433U 21104AB  24039.26303032 -.00000736  00000-0 -28151-4 0  9997,2 49433  53.2188  22.8096 0001635 101.9145 258.2031 15.08838074125200,6917.886,95.438,540.882,538.62,0.0
49433.0,STARLINK-3079,PAYLOAD,2024-02-08 22:12:37,15.08843657,0.0001821,53.2191,19.8359,113.0388,247.0797,1.3182e-05,-7.8e-07,0.0,0 STARLINK-3079,1 49433U 21104AB  24039.92542943 -.00000078  00000-0  13182-4 0  9992,2 49433  53.2191  19.8359 0001821 113.0388 247.0797 15.08843657125301,6917.869,95.437,540.994,538.474,0.0
49433.0,STARLINK-3079,PAYLOAD,2024-02-09 06:09:32,15.08847058,0.0001685,53.2186,18.3496,84.2203,275.8981,0.00014061,1.951e-05,0.0,0 STARLINK-3079,1 49433U 21104AB  24040.25662618  .00001951  00000-0  14061-3 0  9998,2 49433  53.2186  18.3496 0001685  84.2203 275.8981 15.08847058125352,6917.859,95.437,540.889,538.558,0.0
49433.0,STARLINK-3079,PAYLOAD,2024-02-10 02:49:33,15.08836024,0.000189,53.2189,14.4848,70.5068,289.6129,0.00016212,2.293e-05,0.0,0 STARLINK-3079,1 49433U 21104AB  24041.11775371  .00002293  00000-0  16212-3 0  9995,2 49433  53.2189  14.4848 0001890  70.5068 289.6129 15.08836024125480,6917.893,95.438,541.065,538.45,0.0
49433.0,STARLINK-3079,PAYLOAD,2024-02-10 07:35:42,15.08846695,0.000164,53.2194,13.585,100.3151,259.8026,0.00019723,2.853e-05,0.0,0 STARLINK-3079,1 49433U 21104AB  24041.31646742  .00002853  00000-0  19723-3 0  9998,2 49433  53.2194  13.5850 0001640 100.3151 259.8026 15.08846695125511,6917.86,95.437,540.859,538.59,0.0
49433.0,STARLINK-3079,PAYLOAD,2024-02-11 04:15:43,15.08848398,0.000205,53.2193,9.718,124.5976,235.521,5.6166e-05,6.06e-06,0.0,0 STARLINK-3079,1 49433U 21104AB  24042.17758446  .00000606  00000-0  56166-4 0  9995,2 49433  53.2193   9.7180 0002050 124.5976 235.5210 15.08848398125644,6917.855,95.437,541.138,538.302,0.0
49433.0,STARLINK-3079,PAYLOAD,2024-02-11 21:44:58,15.08844738,0.0001691,53.2183,6.4539,102.3844,257.7337,5.7882e-05,6.33e-06,0.0,0 STARLINK-3079,1 49433U 21104AB  24042.90622783  .00000633  00000-0  57882-4 0  9996,2 49433  53.2183   6.4539 0001691 102.3844 257.7337 15.08844738125755,6917.866,95.437,540.901,538.561,0.0
49433.0,STARLINK-3079,PAYLOAD,2024-02-12 07:17:16,15.08854063,0.0001649,53.2183,4.6667,102.1325,257.9852,0.00016402,2.324e-05,0.0,0 STARLINK-3079,1 49433U 21104AB  24043.30366080  .00002324  00000-0  16402-3 0  9997,2 49433  53.2183   4.6667 0001649 102.1325 257.9852 15.08854063125815,6917.837,95.437,540.843,538.562,0.0
49433.0,STARLINK-3079,PAYLOAD,2024-02-12 21:35:45,15.08838221,0.000163,53.2167,1.9841,125.4396,234.6749,-8.6978e-05,-1.672e-05,0.0,0 STARLINK-3079,1 49433U 21104AB  24043.89982758 -.00001672  00000-0 -86978-4 0  9990,2 49433  53.2167   1.9841 0001630 125.4396 234.6749 15.08838221125902,6917.886,95.438,540.878,538.623,0.0
49433.0,STARLINK-3079,PAYLOAD,2024-02-13 03:57:17,15.08838674,0.0001535,53.2188,0.8009,116.7609,243.354,-3.2222e-05,-8.01e-06,0.0,0 STARLINK-3079,1 49433U 21104AB  24044.16478818 -.00000801  00000-0 -32222-4 0  9994,2 49433  53.2188   0.8009 0001535 116.7609 243.3540 15.08838674125945,6917.884,95.438,540.811,538.688,0.0
49433.0,STARLINK-3079,PAYLOAD,2024-02-13 13:29:36,15.08846412,0.00013,53.2186,359.0171,70.7901,289.3232,9.3684e-05,1.204e-05,0.0,0 STARLINK-3079,1 49433U 21104AB  24044.56222700  .00001204  00000-0  93684-4 0  9990,2 49433  53.2186 359.0171 0001300  70.7901 289.3232 15.08846412126001,6917.861,95.437,540.625,538.826,0.0
49433.0,STARLINK-3079,PAYLOAD,2024-02-14 13:20:23,15.08838877,0.0001232,53.2182,354.5612,89.7301,270.3832,-1.4784e-05,-5.23e-06,0.0,0 STARLINK-3079,1 49433U 21104AB  24045.55583142 -.00000523  00000-0 -14784-4 0  9999,2 49433  53.2182 354.5612 0001232  89.7301 270.3832 15.08838877126153,6917.884,95.438,540.601,538.897,0.0
49433.0,STARLINK-3079,PAYLOAD,2024-02-14 19:41:56,15.08832122,0.0001158,53.2188,353.3735,96.049,264.0634,0.00012429,1.69e-05,0.0,0 STARLINK-3079,1 49433U 21104AB  24045.82079689  .00001690  00000-0  12429-3 0  9992,2 49433  53.2188 353.3735 0001158  96.0490 264.0634 15.08832122126190,6917.904,95.438,540.571,538.968,0.0
49433.0,STARLINK-3079,PAYLOAD,2024-02-15 03:38:51,15.08845394,8.86e-05,53.2172,351.8804,97.6581,262.4512,0.00016464,2.334e-05,0.0,0 STARLINK-3079,1 49433U 21104AB  24046.15199067  .00002334  00000-0  16464-3 0  9991,2 49433  53.2172 351.8804 0000886  97.6581 262.4512 15.08845394126246,6917.864,95.437,540.342,539.116,0.0
49433.0,STARLINK-3079,PAYLOAD,2024-02-15 05:14:15,15.08842833,0.000126,53.2185,351.5867,116.1917,243.9205,0.00012334,1.676e-05,0.0,0 STARLINK-3079,1 49433U 21104AB  24046.21823176  .00001676  00000-0  12334-3 0  9993,2 49433  53.2185 351.5867 0001260 116.1917 243.9205 15.08842833126252,6917.872,95.437,540.608,538.865,0.0
49433.0,STARLINK-3079,PAYLOAD,2024-02-15 13:11:10,15.08841566,6.37e-05,53.2195,350.0981,98.0565,262.05,6.4042e-05,7.32e-06,0.0,0 STARLINK-3079,1 49433U 21104AB  24046.54943084  .00000732  00000-0  64042-4 0  9996,2 49433  53.2195 350.0981 0000637  98.0565 262.0500 15.08841566126306,6917.876,95.437,540.181,539.3,0.0
49433.0,STARLINK-3079,PAYLOAD,2024-02-16 03:29:39,15.08842942,0.0001334,53.2197,347.4231,90.8726,269.2419,-2.2631e-05,-6.48e-06,0.0,0 STARLINK-3079,1 49433U 21104AB  24047.14559946 -.00000648  00000-0 -22631-4 0  9999,2 49433  53.2197 347.4231 0001334  90.8726 269.2419 15.08842942126396,6917.871,95.437,540.659,538.814,0.0
49433.0,STARLINK-3079,PAYLOAD,2024-02-16 05:05:02,15.08853427,0.0001082,53.2188,347.1249,103.3937,256.7176,5.9852e-05,6.65e-06,0.0,0 STARLINK-3079,1 49433U 21104AB  24047.21182908  .00000665  00000-0  59852-4 0  9999,2 49433  53.2188 347.1249 0001082 103.3937 256.7176 15.08853427126409,6917.839,95.437,540.453,538.956,0.0
49433.0,STARLINK-3079,PAYLOAD,2024-02-16 13:01:58,15.08842095,0.0001271,53.219,345.6378,85.9686,274.1452,-4.1287e-05,-9.45e-06,0.0,0 STARLINK-3079,1 49433U 21104AB  24047.54303893 -.00000945  00000-0 -41287-4 0  9999,2 49433  53.2190 345.6378 0001271  85.9686 274.1452 15.08842095126459,6917.874,95.437,540.618,538.86,0.0
49433.0,STARLINK-3079,PAYLOAD,2024-02-16 19:23:31,15.08826842,0.000116,53.2187,344.448,96.9649,263.1475,0.00019199,2.768e-05,0.0,0 STARLINK-3079,1 49433U 21104AB  24047.80800413  .00002768  00000-0  19199-3 0  9997,2 49433  53.2187 344.4480 0001160  96.9649 263.1475 15.08826842126493,6917.921,95.438,540.588,538.983,0.0
49433.0,STARLINK-3079,PAYLOAD,2024-02-17 03:20:25,15.08853546,0.0001073,53.2195,342.9616,89.4967,270.6148,0.00019643,2.841e-05,0.0,0 STARLINK-3079,1 49433U 21104AB  24048.13918773  .00002841  00000-0  19643-3 0  9999,2 49433  53.2195 342.9616 0001073  89.4967 270.6148 15.08853546126546,6917.839,95.437,540.446,538.962,0.0
49433.0,STARLINK-3079,PAYLOAD,2024-02-17 12:52:45,15.08846573,0.0001239,53.2204,341.1792,87.8285,272.2849,5.1081e-06,-2.07e-06,0.0,0 STARLINK-3079,1 49433U 21104AB  24048.53663650 -.00000207  00000-0  51081-5 0  9993,2 49433  53.2204 341.1792 0001239  87.8285 272.2849 15.08846573126607,6917.86,95.437,540.582,538.868,0.0
49433.0,STARLINK-3079,PAYLOAD,2024-02-18 01:35:51,15.08835639,0.000135,53.2191,338.7966,94.6194,265.4953,8.2129e-05,1.019e-05,0.0,0 STARLINK-3079,1 49433U 21104AB  24049.06656324  .00001019  00000-0  82129-4 0  9999,2 49433  53.2191 338.7966 0001350  94.6194 265.4953 15.08835639126685,6917.894,95.438,540.693,538.825,0.0
49433.0,STARLINK-3079,PAYLOAD,2024-02-18 04:46:36,15.08851742,0.0001447,53.2202,338.2052,80.9559,279.1596,0.00013588,1.876e-05,0.0,0 STARLINK-3079,1 49433U 21104AB  24049.19903286  .00001876  00000-0  13588-3 0  9998,2 49433  53.2202 338.2052 0001447  80.9559 279.1596 15.08851742126700,6917.844,95.437,540.711,538.708,0.0
49433.0,STARLINK-3079,PAYLOAD,2024-02-18 12:43:32,15.08846596,0.0001324,53.2195,336.7154,96.1192,263.9951,9.9044e-06,-1.3e-06,0.0,0 STARLINK-3079,1 49433U 21104AB  24049.53023657 -.00000130  00000-0  99044-5 0  9997,2 49433  53.2195 336.7154 0001324  96.1192 263.9951 15.08846596126755,6917.86,95.437,540.641,538.809,0.0
